ONEWEB-0674             
1 55833U 23029AP  26187.66671538  .00000034  00000+0  57774-4 0  9996
2 55833  87.8963 285.8345 0001569  99.1619 260.9688 13.14501185161970
ONEWEB-0675             
1 55834U 23029AQ  26187.84378325  .00000023  00000+0  26057-4 0  9993
2 55834  87.9184 301.0623 0002250  99.5001 260.6386 13.19723782161510
ONEWEB-0720             
1 55835U 23029AR  26187.83589558  .00000078  00000+0  16189-3 0  9999
2 55835  87.9187 301.0635 0001958 109.9699 250.1645 13.19725692161435
ONEWEB-0537             
1 56046U 23043A   26187.64982171 -.00000017  00000+0 -77023-4 0  9997
2 56046  87.9083 224.9057 0002254  90.9410 269.1980 13.16593630161520
ONEWEB-0538             
1 56047U 23043B   26187.64348558  .00000054  00000+0  10745-3 0  9999
2 56047  87.9082 224.9097 0002306  97.6945 262.4448 13.16593895161538
ONEWEB-0546             
1 56048U 23043C   26187.63081929  .00000074  00000+0  16027-3 0  9996
2 56048  87.9081 224.9124 0002503  82.0264 278.1151 13.16593539161529
ONEWEB-0547             
1 56049U 23043D   26187.70209961  .00000057  00000+0  10769-3 0  9991
2 56049  87.9243 240.0914 0002156 101.4552 258.6824 13.21826884160804
ONEWEB-0548             
1 56050U 23043E   26187.65535509 -.00000024  00000+0 -95627-4 0  9990
2 56050  87.9082 224.9031 0001681  87.6213 272.5111 13.16594557161526
ONEWEB-0549             
1 56051U 23043F   26187.62052046  .00000024  00000+0  27380-4 0  9997
2 56051  87.9238 240.1132 0002431 101.6791 258.4616 13.21826987160796
ONEWEB-0550             
1 56052U 23043G   26187.68276941 -.00000031  00000+0 -10566-3 0  9993
2 56052  87.9241 240.0987 0001854  96.2297 263.9048 13.21826646160800
ONEWEB-0551             
1 56053U 23043H   26187.70196450  .00000097  00000+0  22396-3 0  9997
2 56053  87.8989 255.3385 0002285 105.8942 254.2440 13.15547577158962
ONEWEB-0552             
1 56054U 23043J   26187.67770348 -.00000014  00000+0 -65518-4 0  9993
2 56054  87.9237 240.1046 0001986 102.3847 257.7509 13.21825627160801
ONEWEB-0553             
1 56055U 23043K   26187.63715149  .00000086  00000+0  19161-3 0  9997
2 56055  87.9081 224.9111 0002179  84.5454 275.5926 13.16593944161532
ONEWEB-0554             
1 56056U 23043L   26187.54849277  .00000096  00000+0  21838-3 0  9993
2 56056  87.9079 224.9375 0001604  87.6856 272.4458 13.16593816161505
ONEWEB-0555             
1 56057U 23043M   26187.58648242  .00000002  00000+0 -27912-4 0  9995
2 56057  87.9082 224.9190 0002410  82.0159 278.1245 13.16593600161515
ONEWEB-0557             
1 56058U 23043N   26187.60073245 -.00000039  00000+0 -13623-3 0  9998
2 56058  87.9082 224.9260 0001785  56.9208 303.2094 13.16593653161513
