{"fetched_at":"2026-07-07T07:58:10.717Z","source":"https://celestrak.org/NORAD/elements/gp.php?GROUP=oneweb&FORMAT=JSON","constellation":"oneweb","records":[{"OBJECT_NAME":"ONEWEB-0674","OBJECT_ID":"2023-029AP","EPOCH":"2026-07-06T16:00:04.208832","CLASSIFICATION_TYPE":"U","MEAN_MOTION":13.14501185,"ECCENTRICITY":0.0001569,"INCLINATION":87.8963,"RA_OF_ASC_NODE":285.8345,"ARG_OF_PERICENTER":99.1619,"MEAN_ANOMALY":260.9688,"EPHEMERIS_TYPE":0,"NORAD_CAT_ID":55833,"ELEMENT_SET_NO":999,"REV_AT_EPOCH":16197,"BSTAR":0.000057774,"MEAN_MOTION_DOT":3.4e-7,"MEAN_MOTION_DDOT":0},{"OBJECT_NAME":"ONEWEB-0675","OBJECT_ID":"2023-029AQ","EPOCH":"2026-07-06T20:15:02.872800","CLASSIFICATION_TYPE":"U","MEAN_MOTION":13.19723782,"ECCENTRICITY":0.000225,"INCLINATION":87.9184,"RA_OF_ASC_NODE":301.0623,"ARG_OF_PERICENTER":99.5001,"MEAN_ANOMALY":260.6386,"EPHEMERIS_TYPE":0,"NORAD_CAT_ID":55834,"ELEMENT_SET_NO":999,"REV_AT_EPOCH":16151,"BSTAR":0.000026057,"MEAN_MOTION_DOT":2.3e-7,"MEAN_MOTION_DDOT":0},{"OBJECT_NAME":"ONEWEB-0720","OBJECT_ID":"2023-029AR","EPOCH":"2026-07-06T20:03:41.378112","CLASSIFICATION_TYPE":"U","MEAN_MOTION":13.19725692,"ECCENTRICITY":0.0001958,"INCLINATION":87.9187,"RA_OF_ASC_NODE":301.0635,"ARG_OF_PERICENTER":109.9699,"MEAN_ANOMALY":250.1645,"EPHEMERIS_TYPE":0,"NORAD_CAT_ID":55835,"ELEMENT_SET_NO":999,"REV_AT_EPOCH":16143,"BSTAR":0.00016189,"MEAN_MOTION_DOT":7.8e-7,"MEAN_MOTION_DDOT":0},{"OBJECT_NAME":"ONEWEB-0537","OBJECT_ID":"2023-043A","EPOCH":"2026-07-06T15:35:44.595744","CLASSIFICATION_TYPE":"U","MEAN_MOTION":13.1659363,"ECCENTRICITY":0.0002254,"INCLINATION":87.9083,"RA_OF_ASC_NODE":224.9057,"ARG_OF_PERICENTER":90.941,"MEAN_ANOMALY":269.198,"EPHEMERIS_TYPE":0,"NORAD_CAT_ID":56046,"ELEMENT_SET_NO":999,"REV_AT_EPOCH":16152,"BSTAR":-0.000077023,"MEAN_MOTION_DOT":-1.7e-7,"MEAN_MOTION_DDOT":0},{"OBJECT_NAME":"ONEWEB-0538","OBJECT_ID":"2023-043B","EPOCH":"2026-07-06T15:26:37.154112","CLASSIFICATION_TYPE":"U","MEAN_MOTION":13.16593895,"ECCENTRICITY":0.0002306,"INCLINATION":87.9082,"RA_OF_ASC_NODE":224.9097,"ARG_OF_PERICENTER":97.6945,"MEAN_ANOMALY":262.4448,"EPHEMERIS_TYPE":0,"NORAD_CAT_ID":56047,"ELEMENT_SET_NO":999,"REV_AT_EPOCH":16153,"BSTAR":0.00010745,"MEAN_MOTION_DOT":5.4e-7,"MEAN_MOTION_DDOT":0},{"OBJECT_NAME":"ONEWEB-0546","OBJECT_ID":"2023-043C","EPOCH":"2026-07-06T15:08:22.786656","CLASSIFICATION_TYPE":"U","MEAN_MOTION":13.16593539,"ECCENTRICITY":0.0002503,"INCLINATION":87.9081,"RA_OF_ASC_NODE":224.9124,"ARG_OF_PERICENTER":82.0264,"MEAN_ANOMALY":278.1151,"EPHEMERIS_TYPE":0,"NORAD_CAT_ID":56048,"ELEMENT_SET_NO":999,"REV_AT_EPOCH":16152,"BSTAR":0.00016027,"MEAN_MOTION_DOT":7.4e-7,"MEAN_MOTION_DDOT":0},{"OBJECT_NAME":"ONEWEB-0547","OBJECT_ID":"2023-043D","EPOCH":"2026-07-06T16:51:01.406304","CLASSIFICATION_TYPE":"U","MEAN_MOTION":13.21826884,"ECCENTRICITY":0.0002156,"INCLINATION":87.9243,"RA_OF_ASC_NODE":240.0914,"ARG_OF_PERICENTER":101.4552,"MEAN_ANOMALY":258.6824,"EPHEMERIS_TYPE":0,"NORAD_CAT_ID":56049,"ELEMENT_SET_NO":999,"REV_AT_EPOCH":16080,"BSTAR":0.00010769,"MEAN_MOTION_DOT":5.7e-7,"MEAN_MOTION_DDOT":0},{"OBJECT_NAME":"ONEWEB-0548","OBJECT_ID":"2023-043E","EPOCH":"2026-07-06T15:43:42.679776","CLASSIFICATION_TYPE":"U","MEAN_MOTION":13.16594557,"ECCENTRICITY":0.0001681,"INCLINATION":87.9082,"RA_OF_ASC_NODE":224.9031,"ARG_OF_PERICENTER":87.6213,"MEAN_ANOMALY":272.5111,"EPHEMERIS_TYPE":0,"NORAD_CAT_ID":56050,"ELEMENT_SET_NO":999,"REV_AT_EPOCH":16152,"BSTAR":-0.000095627,"MEAN_MOTION_DOT":-2.4e-7,"MEAN_MOTION_DDOT":0},{"OBJECT_NAME":"ONEWEB-0549","OBJECT_ID":"2023-043F","EPOCH":"2026-07-06T14:53:32.967744","CLASSIFICATION_TYPE":"U","MEAN_MOTION":13.21826987,"ECCENTRICITY":0.0002431,"INCLINATION":87.9238,"RA_OF_ASC_NODE":240.1132,"ARG_OF_PERICENTER":101.6791,"MEAN_ANOMALY":258.4616,"EPHEMERIS_TYPE":0,"NORAD_CAT_ID":56051,"ELEMENT_SET_NO":999,"REV_AT_EPOCH":16079,"BSTAR":0.00002738,"MEAN_MOTION_DOT":2.4e-7,"MEAN_MOTION_DDOT":0},{"OBJECT_NAME":"ONEWEB-0550","OBJECT_ID":"2023-043G","EPOCH":"2026-07-06T16:23:11.277024","CLASSIFICATION_TYPE":"U","MEAN_MOTION":13.21826646,"ECCENTRICITY":0.0001854,"INCLINATION":87.9241,"RA_OF_ASC_NODE":240.0987,"ARG_OF_PERICENTER":96.2297,"MEAN_ANOMALY":263.9048,"EPHEMERIS_TYPE":0,"NORAD_CAT_ID":56052,"ELEMENT_SET_NO":999,"REV_AT_EPOCH":16080,"BSTAR":-0.00010566,"MEAN_MOTION_DOT":-3.1e-7,"MEAN_MOTION_DDOT":0},{"OBJECT_NAME":"ONEWEB-0551","OBJECT_ID":"2023-043H","EPOCH":"2026-07-06T16:50:49.732800","CLASSIFICATION_TYPE":"U","MEAN_MOTION":13.15547577,"ECCENTRICITY":0.0002285,"INCLINATION":87.8989,"RA_OF_ASC_NODE":255.3385,"ARG_OF_PERICENTER":105.8942,"MEAN_ANOMALY":254.244,"EPHEMERIS_TYPE":0,"NORAD_CAT_ID":56053,"ELEMENT_SET_NO":999,"REV_AT_EPOCH":15896,"BSTAR":0.00022396,"MEAN_MOTION_DOT":9.7e-7,"MEAN_MOTION_DDOT":0},{"OBJECT_NAME":"ONEWEB-0552","OBJECT_ID":"2023-043J","EPOCH":"2026-07-06T16:15:53.580672","CLASSIFICATION_TYPE":"U","MEAN_MOTION":13.21825627,"ECCENTRICITY":0.0001986,"INCLINATION":87.9237,"RA_OF_ASC_NODE":240.1046,"ARG_OF_PERICENTER":102.3847,"MEAN_ANOMALY":257.7509,"EPHEMERIS_TYPE":0,"NORAD_CAT_ID":56054,"ELEMENT_SET_NO":999,"REV_AT_EPOCH":16080,"BSTAR":-0.000065518,"MEAN_MOTION_DOT":-1.4e-7,"MEAN_MOTION_DDOT":0},{"OBJECT_NAME":"ONEWEB-0553","OBJECT_ID":"2023-043K","EPOCH":"2026-07-06T15:17:29.888736","CLASSIFICATION_TYPE":"U","MEAN_MOTION":13.16593944,"ECCENTRICITY":0.0002179,"INCLINATION":87.9081,"RA_OF_ASC_NODE":224.9111,"ARG_OF_PERICENTER":84.5454,"MEAN_ANOMALY":275.5926,"EPHEMERIS_TYPE":0,"NORAD_CAT_ID":56055,"ELEMENT_SET_NO":999,"REV_AT_EPOCH":16153,"BSTAR":0.00019161,"MEAN_MOTION_DOT":8.6e-7,"MEAN_MOTION_DDOT":0},{"OBJECT_NAME":"ONEWEB-0554","OBJECT_ID":"2023-043L","EPOCH":"2026-07-06T13:09:49.775328","CLASSIFICATION_TYPE":"U","MEAN_MOTION":13.16593816,"ECCENTRICITY":0.0001604,"INCLINATION":87.9079,"RA_OF_ASC_NODE":224.9375,"ARG_OF_PERICENTER":87.6856,"MEAN_ANOMALY":272.4458,"EPHEMERIS_TYPE":0,"NORAD_CAT_ID":56056,"ELEMENT_SET_NO":999,"REV_AT_EPOCH":16150,"BSTAR":0.00021838,"MEAN_MOTION_DOT":9.6e-7,"MEAN_MOTION_DDOT":0},{"OBJECT_NAME":"ONEWEB-0555","OBJECT_ID":"2023-043M","EPOCH":"2026-07-06T14:04:32.081088","CLASSIFICATION_TYPE":"U","MEAN_MOTION":13.165936,"ECCENTRICITY":0.000241,"INCLINATION":87.9082,"RA_OF_ASC_NODE":224.919,"ARG_OF_PERICENTER":82.0159,"MEAN_ANOMALY":278.1245,"EPHEMERIS_TYPE":0,"NORAD_CAT_ID":56057,"ELEMENT_SET_NO":999,"REV_AT_EPOCH":16151,"BSTAR":-0.000027912,"MEAN_MOTION_DOT":2e-8,"MEAN_MOTION_DDOT":0},{"OBJECT_NAME":"ONEWEB-0557","OBJECT_ID":"2023-043N","EPOCH":"2026-07-06T14:25:03.283680","CLASSIFICATION_TYPE":"U","MEAN_MOTION":13.16593653,"ECCENTRICITY":0.0001785,"INCLINATION":87.9082,"RA_OF_ASC_NODE":224.926,"ARG_OF_PERICENTER":56.9208,"MEAN_ANOMALY":303.2094,"EPHEMERIS_TYPE":0,"NORAD_CAT_ID":56058,"ELEMENT_SET_NO":999,"REV_AT_EPOCH":16151,"BSTAR":-0.00013623,"MEAN_MOTION_DOT":-3.9e-7,"MEAN_MOTION_DDOT":0}]}
